,ST,IATA,S/L,Hub,CY15enplane,Name,City,Country,Latitude,Longitude,Altitude,Timezone,PercentArrDel15,TaxiIn,ArrDelay,ArrNum,PercentCancelled,TaxiOut,DepDelay,DepNum
0,CA,LAX,P,L,36351272,Los Angeles International Airport,Los Angeles,United States,33.94250107,-118.4079971,125.0,-8,18.1409295352,9.0,-9.0,1341,0.298062593145,15.0,0.0,1342
1,IL,ORD,P,L,36305668,Chicago O'Hare International Airport,Chicago,United States,41.97859955,-87.90480042,672.0,-6,16.9387755102,15.0,-9.0,491,0.0,16.0,-4.0,581
2,TX,DFW,P,L,31589839,Dallas Fort Worth International Airport,Dallas-Fort Worth,United States,32.8968009949,-97.0380020142,607.0,-6,12.6506024096,9.0,-15.0,166,0.0,17.0,-1.0,166
3,NY,JFK,P,L,27782369,John F Kennedy International Airport,New York,United States,40.63980103,-73.77890015,13.0,-5,19.5089100705,6.0,-7.0,9750,0.625120215426,20.0,-2.0,10398
4,CO,DEN,P,L,26280043,Denver International Airport,Denver,United States,39.8616981506,-104.672996521,5431.0,-7,20.3921568627,7.0,-8.0,255,0.0,13.0,-1.0,255
5,CA,SFO,P,L,24190560,San Francisco International Airport,San Francisco,United States,37.6189994812,-122.375,13.0,-8,22.50174703,9.0,-7.0,1451,0.692520775623,15.0,-1.0,1444
6,NC,CLT,P,L,21913166,Charlotte Douglas International Airport,Charlotte,United States,35.2140007019,-80.9430999756,748.0,-5,12.7329192547,7.0,-14.0,322,0.0,18.0,-4.0,322
7,NV,LAS,P,L,21857693,McCarran International Airport,Las Vegas,United States,36.08010101,-115.1520004,2181.0,-8,21.6393442623,7.0,-6.0,1227,0.814332247557,14.0,0.0,1228
8,AZ,PHX,P,L,21351504,Phoenix Sky Harbor International Airport,Phoenix,United States,33.434299469,-112.012001038,1135.0,-7,19.5652173913,5.0,-10.0,184,0.0,14.0,-1.0,184
9,WA,SEA,P,L,20148980,Seattle Tacoma International Airport,Seattle,United States,47.4490013123,-122.308998108,433.0,-8,22.1987315011,8.0,-6.0,474,0.42194092827,16.0,-1.0,474
10,FL,MCO,P,L,18759938,Orlando International Airport,Orlando,United States,28.4293994904,-81.3089981079,96.0,-5,19.3508114856,10.0,-8.0,4083,1.9465727894,14.0,-2.0,4829
11,NJ,EWR,P,L,18684818,Newark Liberty International Airport,Newark,United States,40.6925010681,-74.1687011719,18.0,-5,24.8942917548,8.0,-5.0,1919,0.991080277502,17.0,-3.0,2018
12,MA,BOS,P,L,16290362,General Edward Lawrence Logan International Airport,Boston,United States,42.36429977,-71.00520325,20.0,-5,21.4927632201,5.0,-5.0,10651,0.476889214967,16.0,-3.0,10904
13,MI,DTW,P,L,16255520,Detroit Metropolitan Wayne County Airport,Detroit,United States,42.2123985291,-83.3534011841,645.0,-5,19.5402298851,7.0,-8.0,349,0.859598853868,13.0,-4.0,349
14,PA,PHL,P,L,15101349,Philadelphia International Airport,Philadelphia,United States,39.8718986511,-75.2410964966,36.0,-5,16.2790697674,6.0,-12.0,606,0.661157024793,16.0,-8.0,605
15,NY,LGA,P,L,14319924,La Guardia Airport,New York,United States,40.77719879,-73.87259674,21.0,-5,28.9883268482,8.0,-1.0,1578,1.33757961783,20.0,0.0,1570
16,FL,FLL,P,L,13061632,Fort Lauderdale Hollywood International Airport,Fort Lauderdale,United States,26.072599411,-80.1527023315,9.0,-5,20.4732727657,5.0,-8.0,4828,1.8521948509,14.0,-2.0,5399
17,MD,BWI,P,L,11738845,Baltimore/Washington International Thurgood Marshall Airport,Baltimore,United States,39.17539978,-76.66829681,146.0,-5,15.5612244898,5.0,-11.0,791,1.26422250316,14.0,-7.0,791
18,VA,DCA,P,L,11242375,Ronald Reagan Washington National Airport,Washington,United States,38.8521,-77.037697,15.0,-5,14.0119760479,3.0,-10.0,2539,1.33029266439,14.0,-6.0,2631
19,UT,SLC,P,L,10634538,Salt Lake City International Airport,Salt Lake City,United States,40.7883987427,-111.977996826,4227.0,-7,22.3476297968,4.0,-5.0,445,0.449438202247,13.0,2.0,445
20,VA,IAD,P,L,10363974,Washington Dulles International Airport,Washington,United States,38.94449997,-77.45580292,312.0,-5,14.7572815534,5.0,-12.0,516,0.193798449612,14.0,-6.0,516
21,CA,SAN,P,L,9985763,San Diego International Airport,San Diego,United States,32.7336006165,-117.190002441,17.0,-8,14.2517814727,4.0,-14.0,423,0.473933649289,16.0,-1.0,422
22,FL,TPA,P,L,9150458,Tampa International Airport,Tampa,United States,27.9755001068,-82.533203125,26.0,-5,19.0516511431,5.0,-9.0,1184,0.227617602428,12.0,-6.0,1318
23,OR,PDX,P,L,8340252,Portland International Airport,Portland,United States,45.58869934,-122.5979996,31.0,-8,22.5806451613,5.0,-3.0,312,0.641025641026,12.0,-2.0,312
24,TX,HOU,P,M,5937990,William P Hobby Airport,Houston,United States,29.64539909,-95.27890015,46.0,-6,16.4835164835,3.0,-19.5,182,0.0,12.0,-3.0,182
25,TX,AUS,P,M,5797562,Austin Bergstrom International Airport,Austin,United States,30.1944999695,-97.6698989868,542.0,-6,16.6998011928,5.0,-7.0,510,1.3698630137,11.0,0.0,511
26,TN,BNA,P,M,5715205,Nashville International Airport,Nashville,United States,36.1245002747,-86.6781997681,599.0,-6,12.734082397,6.0,-17.0,268,0.373134328358,11.0,-4.0,268
27,CA,OAK,P,M,5506687,Metropolitan Oakland International Airport,Oakland,United States,37.7212982178,-122.221000671,9.0,-8,18.3856502242,5.0,-7.0,450,0.873362445415,11.0,-2.5,458
28,LA,MSY,P,M,5329711,Louis Armstrong New Orleans International Airport,New Orleans,United States,29.9934005737,-90.2580032349,4.0,-6,9.55882352941,4.0,-20.0,409,0.490196078431,10.0,-4.5,408
29,NC,RDU,P,M,4954735,Raleigh Durham International Airport,Raleigh-durham,United States,35.8776016235,-78.7874984741,435.0,-5,13.1687242798,5.0,-10.0,733,0.682128240109,14.0,-4.0,733
30,CA,SJC,P,M,4822480,Norman Y. Mineta San Jose International Airport,San Jose,United States,37.3625984192,-121.929000854,62.0,-8,18.7096774194,4.0,-8.0,157,0.0,11.0,-1.0,157
31,CA,SMF,P,M,4714729,Sacramento International Airport,Sacramento,United States,38.695400238,-121.591003418,27.0,-8,17.6245210728,6.0,-3.0,263,0.760456273764,13.0,-1.0,263
32,FL,RSW,P,M,4159215,Southwest Florida International Airport,Fort Myers,United States,26.5361995697,-81.7552032471,30.0,-5,13.8528138528,4.0,-12.0,1159,0.431406384814,11.0,-4.0,1159
33,OH,CLE,P,M,3916922,Cleveland Hopkins International Airport,Cleveland,United States,41.4117012024,-81.8498001099,791.0,-5,16.091954023,6.0,-11.0,350,0.857142857143,11.0,-5.0,350
34,PA,PIT,P,M,3890681,Pittsburgh International Airport,Pittsburgh,United States,40.49150085,-80.23290253,1203.0,-5,15.4205607477,6.0,-9.0,430,0.697674418605,11.0,-5.0,430
35,FL,PBI,P,M,3113591,Palm Beach International Airport,West Palm Beach,United States,26.6832008362,-80.0955963135,19.0,-5,19.0268247037,3.0,-10.0,1633,1.7780502759,11.0,-3.0,1631
36,CT,BDL,P,M,2926054,Bradley International Airport,Windsor Locks,United States,41.9388999939,-72.6831970215,173.0,-5,12.1253405995,6.0,-8.0,745,1.0650887574,12.0,-4.0,845
37,FL,JAX,P,M,2716473,Jacksonville International Airport,Jacksonville,United States,30.4941005707,-81.6878967285,30.0,-5,13.5381114903,4.0,-11.0,900,2.66666666667,12.0,-6.0,900
38,AK,ANC,P,M,2525893,Ted Stevens Anchorage International Airport,Anchorage,United States,61.1744003296,-149.996002197,152.0,-9,25.9259259259,4.0,6.0,27,3.57142857143,12.5,0.0,28
39,NY,BUF,P,M,2336431,Buffalo Niagara International Airport,Buffalo,United States,42.94049835,-78.73220062,728.0,-5,17.1118530885,3.0,-7.0,1205,0.414937759336,10.0,-7.0,1205
40,NM,ABQ,P,M,2323883,Albuquerque International Sunport Airport,Albuquerque,United States,35.0401992798,-106.60900116,5355.0,-7,19.7530864198,6.0,-7.0,81,0.0,10.0,0.0,81
41,CA,BUR,P,S,1973897,Bob Hope Airport,Burbank,United States,34.2006988525,-118.35900116,778.0,-8,15.5555555556,3.0,-16.0,90,0.0,15.0,0.0,90
42,RI,PVD,P,S,1763676,Theodore Francis Green State Airport,Providence,United States,41.7326011658,-71.4204025269,55.0,-5,16.6007905138,4.0,-4.0,258,2.33463035019,10.0,-3.5,257
43,VA,RIC,P,S,1740391,Richmond International Airport,Richmond,United States,37.5051994324,-77.3197021484,167.0,-5,18.0602006689,4.0,-8.0,608,0.819672131148,10.0,-6.0,610
44,SC,CHS,P,S,1669988,Charleston Air Force Base-International Airport,Charleston,United States,32.89860153,-80.04049683,46.0,-5,15.2755905512,7.0,-12.0,668,4.95495495495,11.0,-4.0,666
45,NV,RNO,P,S,1669876,Reno Tahoe International Airport,Reno,United States,39.4990997314,-119.767997742,4415.0,-8,14.9659863946,5.0,-9.0,150,2.0,10.0,0.0,150
46,NY,ALB,P,S,1276793,Albany International Airport,Albany,United States,42.748298645,-73.8016967773,285.0,-5,15.0,3.0,-8.0,182,1.0989010989,10.0,-4.0,182
47,CA,LGB,P,S,1220937,Long Beach /Daugherty Field/ Airport,Long Beach,United States,33.81769943,-118.1520004,60.0,-8,17.146776406,3.0,-5.0,2213,1.17647058824,11.0,-3.0,2210
48,NY,ROC,P,S,1177994,Greater Rochester International Airport,Rochester,United States,43.1189002991,-77.6724014282,559.0,-5,19.587628866,4.0,-8.0,293,0.341296928328,10.0,-7.0,293
49,NY,SYR,P,S,987732,Syracuse Hancock International Airport,Syracuse,United States,43.1111984253,-76.106300354,421.0,-5,17.5182481752,3.0,-6.0,413,0.484261501211,12.0,-7.0,413
50,GA,SAV,P,S,980531,Savannah Hilton Head International Airport,Savannah,United States,32.12760162,-81.20210266,50.0,-5,8.64661654135,4.0,-12.0,277,3.97111913357,11.0,-3.0,277
51,CA,PSP,P,S,947728,Palm Springs International Airport,Palm Springs,United States,33.82970047,-116.507003784,477.0,-8,6.66666666667,5.0,-14.0,15,0.0,11.0,-2.0,15
52,ME,PWM,P,S,858449,Portland International Jetport Airport,Portland,United States,43.64619827,-70.30930328,76.0,-5,16.1184210526,3.0,-5.0,305,0.327868852459,11.5,-6.0,305
53,NY,HPN,P,S,757466,Westchester County Airport,White Plains,United States,41.0670013428,-73.7076034546,439.0,-5,22.6309921962,4.0,-3.0,922,2.17155266015,11.0,-1.0,921
54,FL,SRQ,P,S,607449,Sarasota Bradenton International Airport,Sarasota,United States,27.3953990936,-82.554397583,30.0,-5,13.0081300813,3.0,-15.0,123,0.0,10.0,-3.0,123
55,VT,BTV,P,S,581143,Burlington International Airport,Burlington,United States,44.4719009399,-73.1532974243,335.0,-5,19.1558441558,4.0,-6.0,310,0.322580645161,12.0,-6.0,310
56,FL,DAB,P,N,306360,Daytona Beach International Airport,Daytona Beach,United States,29.179899,-81.058098,34.0,-5,9.09090909091,3.0,-22.0,91,3.2967032967,12.0,-7.0,91
57,MA,ACK,P,N,155952,Nantucket Memorial Airport,Nantucket,United States,41.25310135,-70.06020355,47.0,-5,12.5984251969,4.0,-9.0,127,0.0,12.0,-2.0,127
58,NY,SWF,P,N,142603,Stewart International Airport,Newburgh,United States,41.5041007996,-74.1047973633,491.0,-5,21.8390804598,5.0,-5.5,180,3.31491712707,11.0,-3.0,181
