,ST,IATA,S/L,Hub,CY15enplane,Name,City,Country,Latitude,Longitude,Altitude,Timezone,PercentArrDel15,TaxiIn,ArrDelay,ArrNum,PercentCancelled,TaxiOut,DepDelay,DepNum
0,GA,ATL,P,L,49340732,Hartsfield Jackson Atlanta International Airport,Atlanta,United States,33.6366996765,-84.4281005859,1026.0,-5,27.5483870968,8.0,-2.0,3146,1.36768447837,17.0,-3.0,3144
1,CA,LAX,P,L,36351272,Los Angeles International Airport,Los Angeles,United States,33.94250107,-118.4079971,125.0,-8,32.1654706627,13.0,1.0,11971,0.90210491146,21.0,2.0,11972
2,IL,ORD,P,L,36305668,Chicago O'Hare International Airport,Chicago,United States,41.97859955,-87.90480042,672.0,-6,30.1854563202,14.0,-1.0,16746,1.73530635289,16.0,1.0,16827
3,TX,DFW,P,L,31589839,Dallas Fort Worth International Airport,Dallas-Fort Worth,United States,32.8968009949,-97.0380020142,607.0,-6,25.8715387461,11.0,-3.0,36181,1.93656644569,15.0,1.0,36353
4,NY,JFK,P,L,27782369,John F Kennedy International Airport,New York,United States,40.63980103,-73.77890015,13.0,-5,33.9168951698,9.0,1.0,4868,2.28381807535,25.0,0.0,5123
5,CO,DEN,P,L,26280043,Denver International Airport,Denver,United States,39.8616981506,-104.672996521,5431.0,-7,32.9038997214,9.0,2.0,2930,1.67178437393,14.0,-1.0,2931
6,CA,SFO,P,L,24190560,San Francisco International Airport,San Francisco,United States,37.6189994812,-122.375,13.0,-8,33.150434385,5.0,1.0,4422,1.0854816825,17.0,-2.0,4422
7,NC,CLT,P,L,21913166,Charlotte Douglas International Airport,Charlotte,United States,35.2140007019,-80.9430999756,748.0,-5,18.8719525212,9.0,-5.0,23753,0.837548718799,18.0,-1.0,24118
8,NV,LAS,P,L,21857693,McCarran International Airport,Las Vegas,United States,36.08010101,-115.1520004,2181.0,-8,28.4546983898,7.0,-1.0,4233,1.72332389046,15.0,-1.0,4236
9,AZ,PHX,P,L,21351504,Phoenix Sky Harbor International Airport,Phoenix,United States,33.434299469,-112.012001038,1135.0,-7,19.2639560727,6.0,-3.0,15593,0.846262341326,16.0,-2.0,15598
10,FL,MIA,P,L,20986349,Miami International Airport,Miami,United States,25.7931995392,-80.2906036377,8.0,-5,28.3922829582,8.0,0.0,12689,1.34002149767,17.0,0.0,13955
11,TX,IAH,P,L,20595881,George Bush Intercontinental Houston Airport,Houston,United States,29.9843997955,-95.3414001465,97.0,-6,30.4657794677,8.0,0.0,2161,2.5462962963,14.0,-3.0,2160
12,WA,SEA,P,L,20148980,Seattle Tacoma International Airport,Seattle,United States,47.4490013123,-122.308998108,433.0,-8,33.1240188383,9.0,3.0,3231,1.33126934985,17.0,0.0,3230
13,FL,MCO,P,L,18759938,Orlando International Airport,Orlando,United States,28.4293994904,-81.3089981079,96.0,-5,28.8897975874,9.0,0.0,4955,1.08958837772,15.0,-2.0,4956
14,NJ,EWR,P,L,18684818,Newark Liberty International Airport,Newark,United States,40.6925010681,-74.1687011719,18.0,-5,38.6266094421,7.0,5.0,2159,2.26746876446,18.0,-2.0,2161
15,MN,MSP,P,L,17634273,Minneapolis-St Paul International/Wold-Chamberlain Airport,Minneapolis,United States,44.8819999695,-93.2218017578,841.0,-6,32.8779599271,5.0,2.0,2240,2.14190093708,15.0,-2.0,2241
16,MA,BOS,P,L,16290362,General Edward Lawrence Logan International Airport,Boston,United States,42.36429977,-71.00520325,20.0,-5,26.2102166355,6.0,-3.0,7634,2.05631958088,18.0,-3.0,7635
17,MI,DTW,P,L,16255520,Detroit Metropolitan Wayne County Airport,Detroit,United States,42.2123985291,-83.3534011841,645.0,-5,28.7325812873,8.0,0.0,1533,1.4983713355,15.0,-2.0,1535
18,PA,PHL,P,L,15101349,Philadelphia International Airport,Philadelphia,United States,39.8718986511,-75.2410964966,36.0,-5,22.6523672509,5.0,-4.0,11623,0.93739537998,21.0,-2.0,11948
19,NY,LGA,P,L,14319924,La Guardia Airport,New York,United States,40.77719879,-73.87259674,21.0,-5,30.3513433717,6.0,-1.0,7068,3.59366157329,23.0,-2.0,7068
20,FL,FLL,P,L,13061632,Fort Lauderdale Hollywood International Airport,Fort Lauderdale,United States,26.072599411,-80.1527023315,9.0,-5,26.5217391304,4.0,-2.0,1861,0.966702470462,14.0,-2.0,1862
21,MD,BWI,P,L,11738845,Baltimore/Washington International Thurgood Marshall Airport,Baltimore,United States,39.17539978,-76.66829681,146.0,-5,30.8755760369,6.0,1.0,1534,1.10749185668,15.0,-1.0,1535
22,VA,DCA,P,L,11242375,Ronald Reagan Washington National Airport,Washington,United States,38.8521,-77.037697,15.0,-5,29.1724520966,6.0,1.0,7410,2.54991905019,19.0,-2.0,7412
23,UT,SLC,P,L,10634538,Salt Lake City International Airport,Salt Lake City,United States,40.7883987427,-111.977996826,4227.0,-7,27.7907884465,6.0,-1.0,1293,1.23839009288,15.0,-2.0,1292
24,VA,IAD,P,L,10363974,Washington Dulles International Airport,Washington,United States,38.94449997,-77.45580292,312.0,-5,35.7142857143,5.0,4.0,725,1.65517241379,15.0,-1.0,725
25,CA,SAN,P,L,9985763,San Diego International Airport,San Diego,United States,32.7336006165,-117.190002441,17.0,-8,26.0273972603,3.0,-2.0,2589,1.62224797219,18.0,-3.0,2589
26,HI,HNL,P,L,9479094,Honolulu International Airport,Honolulu,United States,21.3187007904,-157.92199707,13.0,-10,27.808676307,5.0,-3.0,905,0.883977900552,19.0,-5.0,905
27,FL,TPA,P,L,9150458,Tampa International Airport,Tampa,United States,27.9755001068,-82.533203125,26.0,-5,29.9089726918,4.0,1.0,3119,1.21912094963,12.0,-2.0,3117
28,OR,PDX,P,L,8340252,Portland International Airport,Portland,United States,45.58869934,-122.5979996,31.0,-8,30.3797468354,4.0,1.0,1285,1.47975077882,12.0,-3.0,1284
29,MO,STL,P,M,6239248,Lambert St Louis International Airport,St. Louis,United States,38.7486991882,-90.3700027466,618.0,-6,29.7563261481,4.0,-2.0,2183,2.47252747253,12.0,-4.0,2184
30,TX,HOU,P,M,5937990,William P Hobby Airport,Houston,United States,29.64539909,-95.27890015,46.0,-6,18.5185185185,5.0,-6.0,27,0.0,13.0,-5.0,25
31,TX,AUS,P,M,5797562,Austin Bergstrom International Airport,Austin,United States,30.1944999695,-97.6698989868,542.0,-6,29.8052497883,6.0,-1.0,2406,2.03742203742,12.0,-3.0,2405
32,TN,BNA,P,M,5715205,Nashville International Airport,Nashville,United States,36.1245002747,-86.6781997681,599.0,-6,27.3903666427,6.0,-1.0,1428,2.24246671338,14.0,-2.0,1427
33,CA,OAK,P,M,5506687,Metropolitan Oakland International Airport,Oakland,United States,37.7212982178,-122.221000671,9.0,-8,22.4598930481,5.0,-2.0,187,1.06951871658,12.0,-5.0,187
34,LA,MSY,P,M,5329711,Louis Armstrong New Orleans International Airport,New Orleans,United States,29.9934005737,-90.2580032349,4.0,-6,29.6140350877,4.0,-1.0,1447,1.65860400829,12.0,-4.0,1447
35,MO,MCI,P,M,5135127,Kansas City International Airport,Kansas City,United States,39.2976,-94.713898,1026.0,-6,25.8064516129,7.0,-3.0,1719,2.38095238095,15.0,-4.0,1722
36,NC,RDU,P,M,4954735,Raleigh Durham International Airport,Raleigh-durham,United States,35.8776016235,-78.7874984741,435.0,-5,28.5399205999,4.0,-1.0,2310,1.64502164502,15.0,-2.0,2310
37,CA,SNA,P,M,4945209,John Wayne Airport-Orange County Airport,Santa Ana,United States,33.67570114,-117.8679962,56.0,-8,20.229468599,5.0,-3.0,1677,1.07398568019,14.0,-3.0,1676
38,CA,SJC,P,M,4822480,Norman Y. Mineta San Jose International Airport,San Jose,United States,37.3625984192,-121.929000854,62.0,-8,23.1337161608,4.0,-2.0,1230,1.21951219512,14.0,-3.0,1230
39,CA,SMF,P,M,4714729,Sacramento International Airport,Sacramento,United States,38.695400238,-121.591003418,27.0,-8,27.0450751252,5.0,0.0,1210,1.32340777502,12.0,-2.0,1209
40,FL,RSW,P,M,4159215,Southwest Florida International Airport,Fort Myers,United States,26.5361995697,-81.7552032471,30.0,-5,23.9802224969,4.0,-4.0,819,0.852618757613,11.5,-3.0,821
41,TX,SAT,P,M,4091434,San Antonio International Airport,San Antonio,United States,29.533700943,-98.4698028564,809.0,-6,31.7329332333,4.0,-2.0,1365,2.85714285714,12.0,-4.0,1365
42,OH,CLE,P,M,3916922,Cleveland Hopkins International Airport,Cleveland,United States,41.4117012024,-81.8498001099,791.0,-5,25.7048092869,6.0,-2.0,611,1.47540983607,12.0,-4.0,610
43,PA,PIT,P,M,3890681,Pittsburgh International Airport,Pittsburgh,United States,40.49150085,-80.23290253,1203.0,-5,27.1708683473,5.0,-2.0,1442,0.971547536433,12.0,-4.0,1441
44,IN,IND,P,M,3889567,Indianapolis International Airport,Indianapolis,United States,39.7173,-86.294403,797.0,-5,24.6537396122,6.0,-3.0,1106,1.89701897019,13.0,-4.0,1107
45,OH,CMH,P,M,3312496,Port Columbus International Airport,Columbus,United States,39.9980010986,-82.8918991089,815.0,-5,26.7045454545,5.0,-2.0,713,2.10378681627,12.5,-3.0,713
46,WI,MKE,P,M,3229897,General Mitchell International Airport,Milwaukee,United States,42.9472007751,-87.8965988159,723.0,-6,28.7330316742,4.0,-3.0,450,1.77777777778,12.0,-4.0,450
47,HI,OGG,P,M,3220753,Kahului Airport,Kahului,United States,20.8985996246,-156.429992676,54.0,-10,28.3823529412,5.0,0.0,686,1.31195335277,13.0,-5.0,686
48,FL,PBI,P,M,3113591,Palm Beach International Airport,West Palm Beach,United States,26.6832008362,-80.0955963135,19.0,-5,23.3624454148,5.0,-3.0,921,1.30293159609,11.0,-4.0,921
49,CT,BDL,P,M,2926054,Bradley International Airport,Windsor Locks,United States,41.9388999939,-72.6831970215,173.0,-5,26.5625,4.0,-2.0,1034,1.25968992248,14.0,-3.0,1032
50,FL,JAX,P,M,2716473,Jacksonville International Airport,Jacksonville,United States,30.4941005707,-81.6878967285,30.0,-5,28.0721533258,5.0,-2.0,899,0.890868596882,13.0,-2.0,898
51,AK,ANC,P,M,2525893,Ted Stevens Anchorage International Airport,Anchorage,United States,61.1744003296,-149.996002197,152.0,-9,22.5296442688,4.0,-5.0,256,1.171875,12.0,-1.0,256
52,NY,BUF,P,M,2336431,Buffalo Niagara International Airport,Buffalo,United States,42.94049835,-78.73220062,728.0,-5,21.686746988,3.0,-3.0,332,0.604229607251,11.0,-3.0,331
53,NM,ABQ,P,M,2323883,Albuquerque International Sunport Airport,Albuquerque,United States,35.0401992798,-106.60900116,5355.0,-7,42.5968109339,5.0,5.0,449,2.67857142857,12.0,-2.0,448
54,CA,ONT,P,M,2089801,Ontario International Airport,Ontario,United States,34.0559997559,-117.600997925,944.0,-8,30.6990881459,6.0,0.0,673,2.38450074516,12.0,-2.0,671
55,NE,OMA,P,M,2046179,Eppley Airfield,Omaha,United States,41.3031997681,-95.8940963745,984.0,-6,26.5350877193,5.0,-2.0,467,1.72043010753,13.0,-5.0,465
56,TN,MEM,P,S,1873716,Memphis International Airport,Memphis,United States,35.0424003601,-89.9766998291,341.0,-6,32.6186830015,6.0,1.0,666,2.40601503759,15.0,-2.0,665
57,OK,OKC,P,S,1803188,Will Rogers World Airport,Oklahoma City,United States,35.3931007385,-97.6007003784,1295.0,-6,44.696969697,5.0,11.0,271,2.21402214022,12.0,-4.0,271
58,RI,PVD,P,S,1763676,Theodore Francis Green State Airport,Providence,United States,41.7326011658,-71.4204025269,55.0,-5,25.4273504274,4.0,-2.0,474,1.68776371308,12.0,-4.0,474
59,VA,RIC,P,S,1740391,Richmond International Airport,Richmond,United States,37.5051994324,-77.3197021484,167.0,-5,28.488372093,6.0,0.0,698,1.00286532951,15.0,-3.0,698
60,SC,CHS,P,S,1669988,Charleston Air Force Base-International Airport,Charleston,United States,32.89860153,-80.04049683,46.0,-5,14.2857142857,6.0,-7.0,119,0.0,15.0,-4.0,119
61,NV,RNO,P,S,1669876,Reno Tahoe International Airport,Reno,United States,39.4990997314,-119.767997742,4415.0,-8,27.4348422497,5.0,-1.0,734,0.682128240109,12.0,-4.0,733
62,KY,SDF,P,S,1640297,Louisville International Standiford Field,Louisville,United States,38.1744,-85.736,501.0,-5,31.6455696203,7.0,5.0,79,0.0,13.0,3.0,79
63,AZ,TUS,P,S,1549253,Tucson International Airport,Tucson,United States,32.1161003113,-110.941001892,2643.0,-7,42.037302726,5.0,7.0,726,3.85674931129,12.0,-2.0,726
64,WA,GEG,P,S,1515351,Spokane International Airport,Spokane,United States,47.6198997498,-117.533996582,2376.0,-8,22.5274725275,4.5,-2.0,183,0.546448087432,12.0,-8.0,183
65,VA,ORF,P,S,1515200,Norfolk International Airport,Norfolk,United States,36.8945999146,-76.2012023926,26.0,-5,28.0802292264,4.0,-1.0,352,1.13636363636,14.0,-3.0,352
66,HI,LIH,P,S,1491688,Lihue Airport,Lihue,United States,21.9759998322,-159.339004517,153.0,-10,14.1479099678,5.0,-7.0,313,0.958466453674,12.0,-9.0,313
67,ID,BOI,P,S,1487777,Boise Air Terminal/Gowen field,Boise,United States,43.56439972,-116.2229996,2871.0,-7,18.8191881919,4.0,-4.0,275,2.1897810219,12.0,-3.0,274
68,HI,KOA,P,S,1485777,Kona International At Keahole Airport,Kona,United States,19.7388000488,-156.046005249,47.0,-10,27.34375,3.0,-3.5,257,0.389105058366,12.0,-5.0,257
69,TX,ELP,P,S,1381392,El Paso International Airport,El Paso,United States,31.80719948,-106.3779984,3959.0,-7,42.1052631579,3.0,6.0,288,1.04166666667,14.0,1.0,288
70,OK,TUL,P,S,1359582,Tulsa International Airport,Tulsa,United States,36.1983985901,-95.8880996704,677.0,-6,35.0931677019,3.0,3.0,657,1.97869101979,15.0,-3.0,657
71,NY,ALB,P,S,1276793,Albany International Airport,Albany,United States,42.748298645,-73.8016967773,285.0,-5,23.3463035019,3.0,-5.0,261,1.53256704981,12.0,-2.0,261
72,NY,ROC,P,S,1177994,Greater Rochester International Airport,Rochester,United States,43.1189002991,-77.6724014282,559.0,-5,17.7514792899,4.0,-5.0,170,0.588235294118,11.0,-4.0,170
73,IA,DSM,P,S,1156462,Des Moines International Airport,Des Moines,United States,41.5340003967,-93.6631011963,958.0,-6,29.1666666667,4.0,-2.5,293,2.73037542662,11.0,-6.0,293
74,OH,DAY,P,S,1041759,James M Cox Dayton International Airport,Dayton,United States,39.9024009705,-84.2193984985,1009.0,-5,30.1886792453,5.0,-6.0,162,1.84049079755,13.0,-5.0,163
75,NY,SYR,P,S,987732,Syracuse Hancock International Airport,Syracuse,United States,43.1111984253,-76.106300354,421.0,-5,32.1428571429,4.0,2.0,168,1.19047619048,11.0,-4.0,168
76,CA,PSP,P,S,947728,Palm Springs International Airport,Palm Springs,United States,33.82970047,-116.507003784,477.0,-8,45.5555555556,5.0,8.5,94,3.1914893617,12.0,0.0,94
77,ME,PWM,P,S,858449,Portland International Jetport Airport,Portland,United States,43.64619827,-70.30930328,76.0,-5,34.6534653465,3.0,0.0,101,0.0,12.0,-3.0,101
78,NC,GSO,P,S,848249,Piedmont Triad International Airport,Greensboro,United States,36.0978012085,-79.9373016357,925.0,-5,0.0,4.0,-12.5,8,0.0,19.5,-7.5,8
79,FL,PNS,P,S,787916,Pensacola Regional Airport,Pensacola,United States,30.473400116,-87.1865997314,121.0,-6,22.2222222222,5.0,-4.0,9,0.0,11.0,-6.0,9
80,KS,ICT,P,S,773550,Wichita Mid Continent Airport,Wichita,United States,37.6498985291,-97.4330978394,1333.0,-6,26.3157894737,5.0,-9.0,19,0.0,12.0,-6.0,17
81,CA,FAT,P,S,695008,Fresno Yosemite International Airport,Fresno,United States,36.7761993408,-119.718002319,336.0,-8,30.2702702703,5.0,0.0,187,1.06951871658,12.0,0.0,187
82,AR,XNA,P,S,629905,Northwest Arkansas Regional Airport,Bentonville,United States,36.281898,-94.306801,1287.0,-6,45.4545454545,6.0,9.0,11,0.0,15.0,-1.0,11
83,CO,COS,P,S,593246,City of Colorado Springs Municipal Airport,Colorado Springs,United States,38.8058013916,-104.700996399,6187.0,-7,43.2142857143,6.0,8.5,288,2.43055555556,14.0,-2.0,288
84,PA,MDT,P,S,587049,Harrisburg International Airport,Harrisburg,United States,40.1935005188,-76.7633972168,310.0,-5,39.1304347826,6.0,4.0,92,2.17391304348,18.0,-3.5,92
85,TX,LBB,P,S,443239,Lubbock Preston Smith International Airport,Lubbock,United States,33.6636009216,-101.822998047,3282.0,-6,36.3636363636,6.0,13.0,11,0.0,13.0,-6.0,11
86,TX,MFE,P,N,391687,Mc Allen Miller International Airport,Mcallen,United States,26.17580032,-98.23860168,107.0,-6,32.7137546468,4.0,2.0,273,1.8315018315,10.0,-3.0,273
87,NC,ILM,P,N,388023,Wilmington International Airport,Wilmington,United States,34.2705993652,-77.9026031494,32.0,-5,22.2222222222,4.0,-7.0,117,1.72413793103,12.0,-6.0,116
88,TX,AMA,P,N,341132,Rick Husband Amarillo International Airport,Amarillo,United States,35.2193984985,-101.706001282,3607.0,-6,55.5555555556,5.0,16.0,9,0.0,16.5,-6.0,8
89,WY,JAC,P,N,313151,Jackson Hole Airport,Jacksn Hole,United States,43.6072998047,-110.737998962,6451.0,-7,30.8823529412,3.0,1.0,274,0.732600732601,13.0,-1.0,273
90,CO,EGE,P,N,156937,Eagle County Regional Airport,Vail,United States,39.64260101,-106.9179993,6548.0,-7,35.6435643564,5.0,2.0,103,0.980392156863,16.0,-7.0,102
